OBJECT_NAME,OBJECT_ID,EPOCH,MEAN_MOTION,ECCENTRICITY,INCLINATION,RA_OF_ASC_NODE,ARG_OF_PERICENTER,MEAN_ANOMALY,EPHEMERIS_TYPE,CLASSIFICATION_TYPE,NORAD_CAT_ID,ELEMENT_SET_NO,REV_AT_EPOCH,BSTAR,MEAN_MOTION_DOT,MEAN_MOTION_DDOT
STARLINK-31280,2024-017T,2024-02-12T19:16:53.728896,15.4409867,0.0001432,53.1592,123.3604,79.2607,280.8561,0,U,58843,999,421,-0.0054123,-0.00244056,0
STARLINK-31269,2024-017U,2024-02-15T22:00:00.999936,15.43843962,0.0001474,53.159,108.5895,93.5668,302.2373,0,U,58844,999,476,2.3642e-05,6.69e-06,0
STARLINK-31264,2024-017V,2024-02-15T23:24:12.347424,15.43897215,0.0001355,53.1589,108.3147,91.7938,268.3224,0,U,58845,999,471,0.00049178,0.00022335,0
STARLINK-31273,2024-017W,2024-02-15T23:24:26.356320,15.43844068,0.0001483,53.1588,108.3155,105.0948,255.0223,0,U,58846,999,471,-7.6567e-05,-3.944e-05,0
STARLINK-31262,2024-017X,2024-02-15T22:00:00.999936,15.4386731,0.0001347,53.159,108.588,88.5389,308.0876,0,U,58847,999,477,-0.00053052,-0.00024793,0
AAC-HSI-SAT3,2023-174DH,2024-02-15T22:12:01.684800,15.06270017,0.0014803,97.4484,122.1684,73.9776,286.3081,0,U,58848,999,1512,0.00054573,7.975e-05,0
2024-018A,2024-018A,2024-02-16T04:00:53.561376,14.32806154,0.0456415,58.6913,321.3891,184.4439,175.247,0,U,58849,999,275,0.00028807,2.347e-05,0
2024-018B,2024-018B,2024-02-16T03:47:31.675200,14.335277,0.0453165,58.6996,321.3628,184.9018,174.7494,0,U,58850,999,274,0.00048441,4.137e-05,0
2024-018C,2024-018C,2024-02-16T03:36:47.861280,14.34054105,0.0450571,58.6885,321.3149,184.3716,175.3315,0,U,58851,999,275,0.00034121,2.843e-05,0
2024-018D,2024-018D,2024-02-16T03:38:18.907008,14.34073917,0.0450855,58.6776,321.3018,183.9603,175.7808,0,U,58852,999,275,0.00091767,8.098e-05,0
STARLINK-31238,2024-019A,2024-02-16T06:00:00.999648,15.51007214,0.0001766,42.9998,171.9703,274.343,328.3445,0,U,58853,999,377,0.0018761,0.00113039,0
STARLINK-31158,2024-019B,2024-02-16T06:00:00.999648,15.48883708,0.000154,42.9996,171.9783,259.8937,339.8836,0,U,58854,999,388,0.0014379,0.00079927,0
STARLINK-31237,2024-019C,2024-02-16T06:00:00.999648,15.48881548,0.0001473,42.9996,171.9802,269.893,329.022,0,U,58855,999,397,0.0015746,0.00087638,0
STARLINK-31244,2024-019D,2024-02-16T06:00:00.999648,15.4888254,0.0001548,42.9996,171.9757,269.6586,330.9732,0,U,58856,999,392,0.0016116,0.00089732,0
STARLINK-31216,2024-019E,2024-02-15T22:00:00.999936,15.55334553,0.000127,42.9997,173.2252,290.4756,167.9008,0,U,58857,999,387,-0.027718,-0.01725576,0
STARLINK-31226,2024-019F,2024-02-16T06:00:00.999648,15.48884469,0.0001362,42.9997,171.9719,241.9981,0.3594,0,U,58858,999,408,0.0013555,0.00075284,0
STARLINK-31197,2024-019G,2024-02-16T06:00:00.999648,15.48883997,0.0001373,42.9996,171.9688,255.7823,347.4332,0,U,58859,999,408,0.0014168,0.00078737,0
STARLINK-31213,2024-019H,2024-02-16T06:00:00.999648,15.49303959,0.0001554,42.9996,171.8407,265.1109,29.5713,0,U,58860,999,408,-0.021684,-0.01099297,0
STARLINK-31199,2024-019J,2024-02-16T06:00:00.999648,15.48883146,0.0001504,42.9997,171.9648,271.2648,333.6659,0,U,58861,999,408,0.0015471,0.00086089,0
STARLINK-31200,2024-019K,2024-02-16T06:00:00.999648,15.48881152,0.0001522,42.9997,171.9626,265.1241,340.666,0,U,58862,999,408,0.001589,0.0008845,0
STARLINK-31149,2024-019L,2024-02-16T06:00:00.999648,15.4860305,0.0002125,42.9996,171.9603,261.7289,344.8973,0,U,58863,999,408,-0.044669,-0.02161071,0
STARLINK-31242,2024-019M,2024-02-16T06:00:00.999648,15.48884376,0.0001216,42.9997,171.9588,264.0732,343.4415,0,U,58864,999,408,0.0013423,0.0007454,0
STARLINK-31223,2024-019N,2024-02-16T06:00:00.999648,15.48884344,0.0001278,42.9997,171.9563,266.806,341.5685,0,U,58865,999,392,0.0013394,0.00074376,0
STARLINK-31219,2024-019P,2024-02-16T06:00:00.999648,15.48889718,0.0002243,42.9995,171.9533,258.3541,350.8995,0,U,58866,999,383,0.00048075,0.00026322,0
STARLINK-31198,2024-019Q,2024-02-16T06:00:00.999648,15.51212634,0.0001511,42.9995,171.5498,270.0721,140.3192,0,U,58867,999,382,-0.031822,-0.017056,0
STARLINK-31196,2024-019R,2024-02-16T06:00:00.999648,15.48885026,0.0001275,42.9997,171.9488,251.4141,359.5385,0,U,58868,999,383,0.0013157,0.00073044,0
STARLINK-31203,2024-019S,2024-02-16T06:00:00.999648,15.48890674,0.0002489,42.9996,171.9479,259.0232,352.8083,0,U,58869,999,408,0.00044363,0.00024259,0
STARLINK-31201,2024-019T,2024-02-15T22:00:00.999936,15.49537814,0.0001649,42.9999,173.891,278.8744,272.5349,0,U,58870,999,382,-0.01639,-0.00846122,0
STARLINK-31214,2024-019U,2024-02-16T06:00:00.999648,15.48881681,0.0001482,42.9996,171.9423,264.4276,349.1002,0,U,58871,999,387,0.0015192,0.00084509,0
STARLINK-31215,2024-019V,2024-02-16T06:00:00.999648,15.48884923,0.0001456,42.9997,171.9406,244.2381,10.1512,0,U,58872,999,392,0.0013463,0.00074767,0
