STARLINK-31280          
1 58843U 24017T   24043.80339964 -.00244056  00000+0 -54123-2 0  9996
2 58843  53.1592 123.3604 0001432  79.2607 280.8561 15.44098670  4216
STARLINK-31269          
1 58844U 24017U   24046.91667824  .00000669  00000+0  23642-4 0  9993
2 58844  53.1590 108.5895 0001474  93.5668 302.2373 15.43843962  4765
STARLINK-31264          
1 58845U 24017V   24046.97514291  .00022335  00000+0  49178-3 0  9994
2 58845  53.1589 108.3147 0001355  91.7938 268.3224 15.43897215  4712
STARLINK-31273          
1 58846U 24017W   24046.97530505 -.00003944  00000+0 -76567-4 0  9991
2 58846  53.1588 108.3155 0001483 105.0948 255.0223 15.43844068  4713
STARLINK-31262          
1 58847U 24017X   24046.91667824 -.00024793  00000+0 -53052-3 0  9999
2 58847  53.1590 108.5880 0001347  88.5389 308.0876 15.43867310  4771
AAC-HSI-SAT3            
1 58848U 23174DH  24046.92501950  .00007975  00000+0  54573-3 0  9991
2 58848  97.4484 122.1684 0014803  73.9776 286.3081 15.06270017 15126
2024-018A               
1 58849U 24018A   24047.16728659  .00002347  00000+0  28807-3 0  9993
2 58849  58.6913 321.3891 0456415 184.4439 175.2470 14.32806154  2757
2024-018B               
1 58850U 24018B   24047.15800550  .00004137  00000+0  48441-3 0  9990
2 58850  58.6996 321.3628 0453165 184.9018 174.7494 14.33527700  2742
2024-018C               
1 58851U 24018C   24047.15055395  .00002843  00000+0  34121-3 0  9992
2 58851  58.6885 321.3149 0450571 184.3716 175.3315 14.34054105  2750
2024-018D               
1 58852U 24018D   24047.15160772  .00008098  00000+0  91767-3 0  9996
2 58852  58.6776 321.3018 0450855 183.9603 175.7808 14.34073917  2753
STARLINK-31238          
1 58853U 24019A   24047.25001157  .00113039  00000+0  18761-2 0  9994
2 58853  42.9998 171.9703 0001766 274.3430 328.3445 15.51007214  3775
STARLINK-31158          
1 58854U 24019B   24047.25001157  .00079927  00000+0  14379-2 0  9993
2 58854  42.9996 171.9783 0001540 259.8937 339.8836 15.48883708  3881
STARLINK-31237          
1 58855U 24019C   24047.25001157  .00087638  00000+0  15746-2 0  9991
2 58855  42.9996 171.9802 0001473 269.8930 329.0220 15.48881548  3971
STARLINK-31244          
1 58856U 24019D   24047.25001157  .00089732  00000+0  16116-2 0  9991
2 58856  42.9996 171.9757 0001548 269.6586 330.9732 15.48882540  3926
STARLINK-31216          
1 58857U 24019E   24046.91667824 -.01725576  00000+0 -27718-1 0  9998
2 58857  42.9997 173.2252 0001270 290.4756 167.9008 15.55334553  3878
STARLINK-31226          
1 58858U 24019F   24047.25001157  .00075284  00000+0  13555-2 0  9994
2 58858  42.9997 171.9719 0001362 241.9981   0.3594 15.48884469  4087
STARLINK-31197          
1 58859U 24019G   24047.25001157  .00078737  00000+0  14168-2 0  9992
2 58859  42.9996 171.9688 0001373 255.7823 347.4332 15.48883997  4082
STARLINK-31213          
1 58860U 24019H   24047.25001157 -.01099297  00000+0 -21684-1 0  9991
2 58860  42.9996 171.8407 0001554 265.1109  29.5713 15.49303959  4082
STARLINK-31199          
1 58861U 24019J   24047.25001157  .00086089  00000+0  15471-2 0  9992
2 58861  42.9997 171.9648 0001504 271.2648 333.6659 15.48883146  4081
STARLINK-31200          
1 58862U 24019K   24047.25001157  .00088450  00000+0  15890-2 0  9992
2 58862  42.9997 171.9626 0001522 265.1241 340.6660 15.48881152  4084
STARLINK-31149          
1 58863U 24019L   24047.25001157 -.02161071  00000+0 -44669-1 0  9993
2 58863  42.9996 171.9603 0002125 261.7289 344.8973 15.48603050  4085
STARLINK-31242          
1 58864U 24019M   24047.25001157  .00074540  00000+0  13423-2 0  9999
2 58864  42.9997 171.9588 0001216 264.0732 343.4415 15.48884376  4086
STARLINK-31223          
1 58865U 24019N   24047.25001157  .00074376  00000+0  13394-2 0  9994
2 58865  42.9997 171.9563 0001278 266.8060 341.5685 15.48884344  3927
STARLINK-31219          
1 58866U 24019P   24047.25001157  .00026322  00000+0  48075-3 0  9998
2 58866  42.9995 171.9533 0002243 258.3541 350.8995 15.48889718  3833
STARLINK-31198          
1 58867U 24019Q   24047.25001157 -.01705600  00000+0 -31822-1 0  9995
2 58867  42.9995 171.5498 0001511 270.0721 140.3192 15.51212634  3829
STARLINK-31196          
1 58868U 24019R   24047.25001157  .00073044  00000+0  13157-2 0  9995
2 58868  42.9997 171.9488 0001275 251.4141 359.5385 15.48885026  3837
STARLINK-31203          
1 58869U 24019S   24047.25001157  .00024259  00000+0  44363-3 0  9994
2 58869  42.9996 171.9479 0002489 259.0232 352.8083 15.48890674  4084
STARLINK-31201          
1 58870U 24019T   24046.91667824 -.00846122  00000+0 -16390-1 0  9997
2 58870  42.9999 173.8910 0001649 278.8744 272.5349 15.49537814  3823
STARLINK-31214          
1 58871U 24019U   24047.25001157  .00084509  00000+0  15192-2 0  9998
2 58871  42.9996 171.9423 0001482 264.4276 349.1002 15.48881681  3870
STARLINK-31215          
1 58872U 24019V   24047.25001157  .00074767  00000+0  13463-2 0  9993
2 58872  42.9997 171.9406 0001456 244.2381  10.1512 15.48884923  3926
